NORAD_CAT_ID,OBJECT_NAME,OBJECT_TYPE,EPOCH,MEAN_MOTION,ECCENTRICITY,INCLINATION,RA_OF_ASC_NODE,ARG_OF_PERICENTER,MEAN_ANOMALY,BSTAR,MEAN_MOTION_DOT,MEAN_MOTION_DDOT,TLE_LINE0,TLE_LINE1,TLE_LINE2,SEMIMAJOR_AXIS,PERIOD,APOGEE,PERIGEE,DECAYED
50844.0,STARLINK-3326,PAYLOAD,2023-01-08 20:12:27,15.08855004,0.0002641,53.2179,327.92800000000005,30.6565,329.4581,0.0010032,0.00015721,0.0,0 STARLINK-3326,1 50844U 22001AT  23008.84197954  .00015721  00000-0  10032-2 0  9990,2 50844  53.2179 327.9280 0002641  30.6565 329.4581 15.08855004 55771,6917.835,95.437,541.5269999999998,537.873,0.0
50844.0,STARLINK-3326,PAYLOAD,2023-01-09 04:09:22,15.08841494,0.0002605,53.2156,326.4395,14.2687,345.8379,0.00039444,5.995e-05,0.0,0 STARLINK-3326,1 50844U 22001AT  23009.17318061  .00005995  00000-0  39444-3 0  9992,2 50844  53.2156 326.4395 0002605  14.2687 345.8379 15.08841494 57104,6917.876,95.437,541.543,537.939,0.0
50844.0,STARLINK-3326,PAYLOAD,2023-01-09 13:41:41,15.08840948,0.0002905,53.2163,324.6541,24.6459,335.4672,0.00027771,4.134e-05,0.0,0 STARLINK-3326,1 50844U 22001AT  23009.57062157  .00004134  00000-0  27771-3 0  9992,2 50844  53.2163 324.6541 0002905  24.6459 335.4672 15.08840948 55887,6917.877,95.437,541.752,537.7330000000002,0.0
50844.0,STARLINK-3326,PAYLOAD,2023-01-10 05:35:33,15.0882729,0.0002795,53.2167,321.6813,27.3591,332.7548,-0.00012789,-2.323e-05,0.0,0 STARLINK-3326,1 50844U 22001AT  23010.23302823 -.00002323  00000-0 -12789-3 0  9997,2 50844  53.2167 321.6813 0002795  27.3591 332.7548 15.08827290 57265,6917.919,95.438,541.7180000000002,537.851,0.0
50844.0,STARLINK-3326,PAYLOAD,2023-01-10 13:32:29,15.08836103,0.0002464,53.2157,320.1972,19.7144,340.3943,6.573e-05,7.58e-06,0.0,0 STARLINK-3326,1 50844U 22001AT  23010.56422559  .00000758  00000-0  65730-4 0  9995,2 50844  53.2157 320.1972 0002464  19.7144 340.3943 15.08836103 56037,6917.892,95.438,541.462,538.053,0.0
50844.0,STARLINK-3326,PAYLOAD,2023-01-11 13:23:15,15.08857217,0.0002751,53.2163,315.7356,27.5841,332.5296,0.00029359,4.389e-05,0.0,0 STARLINK-3326,1 50844U 22001AT  23011.55781704  .00004389  00000-0  29359-3 0  9995,2 50844  53.2163 315.7356 0002751  27.5841 332.5296 15.08857217 57461,6917.828,95.436,541.596,537.79,0.0
50844.0,STARLINK-3326,PAYLOAD,2023-01-11 19:44:48,15.08852271,0.0002738,53.2161,314.5463,28.8066,331.3077,0.00029682,4.44e-05,0.0,0 STARLINK-3326,1 50844U 22001AT  23011.82277890  .00004440  00000-0  29682-3 0  9998,2 50844  53.2161 314.5463 0002738  28.8066 331.3077 15.08852271 56225,6917.843000000002,95.437,541.602,537.814,0.0
50844.0,STARLINK-3326,PAYLOAD,2023-01-12 02:06:20,15.08851536,0.0002648999999999,53.2159,313.3561,28.1864,331.9271,0.00028597,4.267e-05,0.0,0 STARLINK-3326,1 50844U 22001AT  23012.08773896  .00004267  00000-0  28597-3 0  9995,2 50844  53.2159 313.3561 0002649  28.1864 331.9271 15.08851536 57549,6917.845,95.437,541.543,537.878,0.0
50844.0,STARLINK-3326,PAYLOAD,2023-01-12 19:35:36,15.08812309,0.0002433,53.2156,310.0851,33.4941,326.6205,-0.00046761,-7.717e-05,0.0,0 STARLINK-3326,1 50844U 22001AT  23012.81639570 -.00007717  00000-0 -46761-3 0  9994,2 50844  53.2156 310.0851 0002433  33.4941 326.6205 15.08812309 57653,6917.965,95.439,541.513,538.1469999999998,0.0
50844.0,STARLINK-3326,PAYLOAD,2023-01-12 21:10:59,15.08812966,0.0002494,53.2153,309.7881,34.6649,325.4505,-0.00054663,-8.971e-05,0.0,0 STARLINK-3326,1 50844U 22001AT  23012.88263434 -.00008971  00000-0 -54663-3 0  9996,2 50844  53.2153 309.7881 0002494  34.6649 325.4505 15.08812966 56381,6917.963000000002,95.439,541.553,538.1030000000002,0.0
50844.0,STARLINK-3326,PAYLOAD,2023-01-13 01:57:09,15.08817952,0.0002364,53.2156,308.8959,34.5227,325.5919,-0.00024744,-4.222e-05,0.0,0 STARLINK-3326,1 50844U 22001AT  23013.08135443 -.00004222  00000-0 -24744-3 0  9999,2 50844  53.2156 308.8959 0002364  34.5227 325.5919 15.08817952 57692,6917.948,95.439,541.448,538.177,0.0
50844.0,STARLINK-3326,PAYLOAD,2023-01-13 13:04:51,15.08823035,0.0002323,53.2152,306.8143,38.8546,321.2613,0.0010792,0.00016921,0.0,0 STARLINK-3326,1 50844U 22001AT  23013.54504375  .00016921  00000-0  10792-2 0  9998,2 50844  53.2152 306.8143 0002323  38.8546 321.2613 15.08823035 56486,6917.932,95.439,541.404,538.19,0.0
50844.0,STARLINK-3326,PAYLOAD,2023-01-13 14:40:15,15.08823868,0.0002379999999999,53.2151,306.517,39.1206,320.9958,0.0010639,0.00016677,0.0,0 STARLINK-3326,1 50844U 22001AT  23013.61128490  .00016677  00000-0  10639-2 0  9994,2 50844  53.2151 306.5170 0002380  39.1206 320.9958 15.08823868 57777,6917.93,95.439,541.441,538.148,0.0
50844.0,STARLINK-3326,PAYLOAD,2023-01-13 21:01:47,15.08841513,0.0002351,53.2152,305.3276,40.6115,319.5052,0.0014700999999999,0.00023187,0.0,0 STARLINK-3326,1 50844U 22001AT  23013.87624555  .00023187  00000-0  14701-2 0  9993,2 50844  53.2152 305.3276 0002351  40.6115 319.5052 15.08841513 56535,6917.876,95.437,541.367,538.114,0.0
50844.0,STARLINK-3326,PAYLOAD,2023-01-14 04:58:42,15.08879319,0.0002359,53.2152,303.8411,41.897,318.2203,0.0025423999999999,0.00040451,0.0,0 STARLINK-3326,1 50844U 22001AT  23014.20743914  .00040451  00000-0  25424-2 0  9999,2 50844  53.2152 303.8411 0002359  41.8970 318.2203 15.08879319 57865,6917.76,95.435,541.257,537.993,0.0
50844.0,STARLINK-3326,PAYLOAD,2023-01-14 19:17:10,15.08863085,0.0002443,53.2154,301.1645,43.3602,316.7582,0.0012458,0.00019607,0.0,0 STARLINK-3326,1 50844U 22001AT  23014.80359833  .00019607  00000-0  12458-2 0  9990,2 50844  53.2154 301.1645 0002443  43.3602 316.7582 15.08863085 57956,6917.81,95.436,541.365,537.985,0.0
50844.0,STARLINK-3326,PAYLOAD,2023-01-15 04:49:29,15.08874347,0.0002166999999999,53.2154,299.3799,50.0159,310.1023,0.0019541,0.00030978,0.0,0 STARLINK-3326,1 50844U 22001AT  23015.20103312  .00030978  00000-0  19541-2 0  9998,2 50844  53.2154 299.3799 0002167  50.0159 310.1023 15.08874347 56735,6917.775,95.435,541.139,538.141,0.0
50844.0,STARLINK-3326,PAYLOAD,2023-01-15 22:18:43,15.08870417,0.0001673,53.2153,296.1086,60.4466,299.6693,0.0023084,0.00036672,0.0,0 STARLINK-3326,1 50844U 22001AT  23015.92967317  .00036672  00000-0  23084-2 0  9994,2 50844  53.2153 296.1086 0001673  60.4466 299.6693 15.08870417 56845,6917.786999999999,95.436,540.81,538.495,0.0
50844.0,STARLINK-3326,PAYLOAD,2023-01-16 11:01:48,15.08864826,0.0001906,53.2164,293.7285,61.5484,298.57,0.001843,0.00029185,0.0,0 STARLINK-3326,1 50844U 22001AT  23016.45959168  .00029185  00000-0  18430-2 0  9998,2 50844  53.2164 293.7285 0001906  61.5484 298.5700 15.08864826 58208,6917.805,95.436,540.988,538.351,0.0
50844.0,STARLINK-3326,PAYLOAD,2023-01-16 17:23:21,15.08846123,0.0003508999999999,53.2161,292.5393,72.8353,287.3023,0.0011962,0.00018805,0.0,0 STARLINK-3326,1 50844U 22001AT  23016.72455910  .00018805  00000-0  11962-2 0  9994,2 50844  53.2161 292.5393 0003509  72.8353 287.3023 15.08846123 58241,6917.861999999999,95.437,542.154,537.299,0.0
50844.0,STARLINK-3326,PAYLOAD,2023-01-17 04:31:03,15.08840712,0.0001565999999999,53.2158,290.4583,80.3295,279.7874,0.0020995,0.00033284,0.0,0 STARLINK-3326,1 50844U 22001AT  23017.18824012  .00033284  00000-0  20995-2 0  9992,2 50844  53.2158 290.4583 0001566  80.3295 279.7874 15.08840712 58310,6917.878000000001,95.438,540.827,538.66,0.0
50844.0,STARLINK-3326,PAYLOAD,2023-01-17 10:52:36,15.08829353,0.0001520999999999,53.2156,289.2674,84.25399999999999,275.8626,0.00090242,0.00014099,0.0,0 STARLINK-3326,1 50844U 22001AT  23017.45320492  .00014099  00000-0  90242-3 0  9991,2 50844  53.2156 289.2674 0001521  84.2540 275.8626 15.08829353 58356,6917.9130000000005,95.438,540.83,538.726,0.0
50844.0,STARLINK-3326,PAYLOAD,2023-01-17 17:14:09,15.08835629,0.0002276999999999,53.2145,288.0791,84.7211,275.4041,0.0014332,0.00022593,0.0,0 STARLINK-3326,1 50844U 22001AT  23017.71817061  .00022593  00000-0  14332-2 0  9996,2 50844  53.2145 288.0791 0002277  84.7211 275.4041 15.08835629 57113,6917.894,95.438,541.3340000000001,538.184,0.0
50844.0,STARLINK-3326,PAYLOAD,2023-01-18 01:11:05,15.08830034,0.0001758,53.2162,286.5924,87.6315,272.4878,0.00060421,9.338e-05,0.0,0 STARLINK-3326,1 50844U 22001AT  23018.04937328  .00009338  00000-0  60421-3 0  9995,2 50844  53.2162 286.5924 0001758  87.6315 272.4878 15.08830034 58440,6917.911,95.438,540.992,538.56,0.0
50844.0,STARLINK-3326,PAYLOAD,2023-01-18 10:43:24,15.08845961,0.000196,53.2151,284.808,85.3277,274.7939,0.0011198,0.00017582,0.0,0 STARLINK-3326,1 50844U 22001AT  23018.44681442  .00017582  00000-0  11198-2 0  9998,2 50844  53.2151 284.8080 0001960  85.3277 274.7939 15.08845961 57222,6917.861999999999,95.437,541.0830000000001,538.371,0.0
50844.0,STARLINK-3326,PAYLOAD,2023-01-18 21:51:06,15.08864008,0.0001717,53.216,282.7275,87.7247,272.3942,0.0012212999999999,0.00019215,0.0,0 STARLINK-3326,1 50844U 22001AT  23018.91048887  .00019215  00000-0  12213-2 0  9994,2 50844  53.2160 282.7275 0001717  87.7247 272.3942 15.08864008 58578,6917.807,95.436,540.86,538.484,0.0
50844.0,STARLINK-3326,PAYLOAD,2023-01-19 10:34:11,15.08836844,0.0002761,53.2155,280.3485,70.8603,289.2688,0.00041835,6.376e-05,0.0,0 STARLINK-3326,1 50844U 22001AT  23019.44041457  .00006376  00000-0  41835-3 0  9996,2 50844  53.2155 280.3485 0002761  70.8603 289.2688 15.08836844 58658,6917.89,95.438,541.665,537.845,0.0
50844.0,STARLINK-3326,PAYLOAD,2023-01-20 02:28:03,15.08832843,0.0001883,53.2162,277.3744,73.0776,287.0423,0.00042381,6.462e-05,0.0,0 STARLINK-3326,1 50844U 22001AT  23020.10281786  .00006462  00000-0  42381-3 0  9995,2 50844  53.2162 277.3744 0001883  73.0776 287.0423 15.08832843 58759,6917.901999999999,95.438,541.07,538.465,0.0
50844.0,STARLINK-3326,PAYLOAD,2023-01-20 10:24:59,15.08835523,0.0001802,53.2142,275.889,70.0522,290.0664,0.00085153,0.00013288,0.0,0 STARLINK-3326,1 50844U 22001AT  23020.43402127  .00013288  00000-0  85153-3 0  9993,2 50844  53.2142 275.8890 0001802  70.0522 290.0664 15.08835523 57522,6917.894,95.438,541.006,538.512,0.0
